NORAD_CAT_ID,OBJECT_NAME,OBJECT_TYPE,EPOCH,MEAN_MOTION,ECCENTRICITY,INCLINATION,RA_OF_ASC_NODE,ARG_OF_PERICENTER,MEAN_ANOMALY,BSTAR,MEAN_MOTION_DOT,MEAN_MOTION_DDOT,TLE_LINE0,TLE_LINE1,TLE_LINE2,SEMIMAJOR_AXIS,PERIOD,APOGEE,PERIGEE,DECAYED
52132.0,STARLINK-3718,PAYLOAD,2023-10-08 13:40:35,15.0884019,0.0001437,53.2181,73.6005,92.583,267.5327,4.2124e-05,3.83e-06,0.0,0 STARLINK-3718,1 52132U 22029AW  23281.56985110  .00000383  00000-0  42124-4 0  9990,2 52132  53.2181  73.6005 0001437  92.5830 267.5327 15.08840190 87618,6917.88,95.438,540.739,538.751,0.0
52132.0,STARLINK-3718,PAYLOAD,2023-10-08 16:51:21,15.08844806,0.0001442,53.2184,73.0055,92.8001,267.3157,3.8615e-05,3.27e-06,0.0,0 STARLINK-3718,1 52132U 22029AW  23281.70232788  .00000327  00000-0  38615-4 0  9990,2 52132  53.2184  73.0055 0001442  92.8001 267.3157 15.08844806 87638,6917.866,95.437,540.728,538.733,0.0
52132.0,STARLINK-3718,PAYLOAD,2023-10-08 20:02:07,15.08847562,0.0001461,53.2182,72.4095,100.4439,259.6718,8.0416e-05,9.92e-06,0.0,0 STARLINK-3718,1 52132U 22029AW  23281.83480457  .00000992  00000-0  80416-4 0  9996,2 52132  53.2182  72.4095 0001461 100.4439 259.6718 15.08847562 87656,6917.857,95.437,540.733,538.712,0.0
52132.0,STARLINK-3718,PAYLOAD,2023-10-09 13:31:22,15.0884052,0.0001569,53.2169,69.1379,103.9186,256.1981,2.8035e-05,1.58e-06,0.0,0 STARLINK-3718,1 52132U 22029AW  23282.56345092  .00000158  00000-0  28035-4 0  9995,2 52132  53.2169  69.1379 0001569 103.9186 256.1981 15.08840520 87768,6917.879,95.438,540.829,538.658,0.0
52132.0,STARLINK-3718,PAYLOAD,2023-10-09 19:52:54,15.08845728,0.0001489,53.2174,67.9501,92.8956,267.2207,9.7121e-05,1.258e-05,0.0,0 STARLINK-3718,1 52132U 22029AW  23282.82840682  .00001258  00000-0  97121-4 0  9993,2 52132  53.2174  67.9501 0001489  92.8956 267.2207 15.08845728 87803,6917.863,95.437,540.758,538.698,0.0
52132.0,STARLINK-3718,PAYLOAD,2023-10-10 10:11:22,15.08838911,0.0001387,53.2168,65.272,95.4586,264.6564,7.1468e-05,8.5e-06,0.0,0 STARLINK-3718,1 52132U 22029AW  23283.42457132  .00000850  00000-0  71468-4 0  9997,2 52132  53.2168  65.2720 0001387  95.4586 264.6564 15.08838911 87897,6917.884,95.438,540.708,538.789,0.0
52132.0,STARLINK-3718,PAYLOAD,2023-10-10 13:22:08,15.08844905,0.0001599,53.2178,64.6774,109.9033,250.2131,0.00012197,1.654e-05,0.0,0 STARLINK-3718,1 52132U 22029AW  23283.55704616  .00001654  00000-0  12197-3 0  9999,2 52132  53.2178  64.6774 0001599 109.9033 250.2131 15.08844905 87917,6917.865,95.437,540.837,538.624,0.0
52132.0,STARLINK-3718,PAYLOAD,2023-10-10 16:32:54,15.08853605,0.0001396,53.2187,64.0867,95.0453,265.0698,0.0001735,2.475e-05,0.0,0 STARLINK-3718,1 52132U 22029AW  23283.68952096  .00002475  00000-0  17350-3 0  9998,2 52132  53.2187  64.0867 0001396  95.0453 265.0698 15.08853605 87931,6917.839,95.437,540.67,538.738,0.0
52132.0,STARLINK-3718,PAYLOAD,2023-10-10 19:43:40,15.08859062,0.0001376,53.2174,63.4897,97.4127,262.7022,0.00027992,4.172e-05,0.0,0 STARLINK-3718,1 52132U 22029AW  23283.82200027  .00004172  00000-0  27992-3 0  9993,2 52132  53.2174  63.4897 0001376  97.4127 262.7022 15.08859062 87955,6917.822,95.436,540.639,538.735,0.0
52132.0,STARLINK-3718,PAYLOAD,2023-10-11 10:02:09,15.08848404,0.0001594,53.2158,60.812,91.7563,268.3612,0.00010971,1.459e-05,0.0,0 STARLINK-3718,1 52132U 22029AW  23284.41816329  .00001459  00000-0  10971-3 0  9991,2 52132  53.2158  60.8120 0001594  91.7563 268.3612 15.08848404 88046,6917.855,95.437,540.822,538.617,0.0
52132.0,STARLINK-3718,PAYLOAD,2023-10-11 13:12:55,15.08849762,0.0001971,53.2173,60.2161,102.1962,257.9251,0.00011844,1.598e-05,0.0,0 STARLINK-3718,1 52132U 22029AW  23284.55064150  .00001598  00000-0  11844-3 0  9997,2 52132  53.2173  60.2161 0001971 102.1962 257.9251 15.08849762 88064,6917.851,95.437,541.079,538.352,0.0
52132.0,STARLINK-3718,PAYLOAD,2023-10-12 01:56:00,15.08836546,0.0001801,53.2161,57.8374,82.1732,277.9465,-0.00015221,-2.71e-05,0.0,0 STARLINK-3718,1 52132U 22029AW  23285.08056535 -.00002710  00000-0 -15221-3 0  9996,2 52132  53.2161  57.8374 0001801  82.1732 277.9465 15.08836546 88147,6917.891,95.438,541.002,538.51,0.0
52132.0,STARLINK-3718,PAYLOAD,2023-10-12 14:39:06,15.08833959,0.0001765,53.2187,55.4624,94.8112,265.3082,-0.00014178,-2.543e-05,0.0,0 STARLINK-3718,1 52132U 22029AW  23285.61049084 -.00002543  00000-0 -14178-3 0  9990,2 52132  53.2187  55.4624 0001765  94.8112 265.3082 15.08833959 88228,6917.899,95.438,540.985,538.543,0.0
52132.0,STARLINK-3718,PAYLOAD,2023-10-12 16:14:29,15.08837639,0.0001671,53.2187,55.1652,95.2526,264.8656,-9.9135e-05,-1.865e-05,0.0,0 STARLINK-3718,1 52132U 22029AW  23285.67672916 -.00001865  00000-0 -99135-4 0  9995,2 52132  53.2187  55.1652 0001671  95.2526 264.8656 15.08837639 88237,6917.888,95.438,540.909,538.597,0.0
52132.0,STARLINK-3718,PAYLOAD,2023-10-13 12:54:30,15.08835084,0.0001582,53.2176,51.2961,79.8239,280.2932,-3.6775e-05,-8.73e-06,0.0,0 STARLINK-3718,1 52132U 22029AW  23286.53785382 -.00000873  00000-0 -36775-4 0  9992,2 52132  53.2176  51.2961 0001582  79.8239 280.2932 15.08835084 88360,6917.895,95.438,540.855,538.666,0.0
52132.0,STARLINK-3718,PAYLOAD,2023-10-13 14:29:53,15.08835355,0.0001385,53.2164,51.0016,65.5777,294.536,6.8545e-05,8.03e-06,0.0,0 STARLINK-3718,1 52132U 22029AW  23286.60409425  .00000803  00000-0  68545-4 0  9992,2 52132  53.2164  51.0016 0001385  65.5777 294.5360 15.08835355 88371,6917.895,95.438,540.718,538.801,0.0
52132.0,STARLINK-3718,PAYLOAD,2023-10-13 16:05:16,15.0884734,0.0001565,53.2181,50.7027,74.5293,285.5872,0.00018139,2.601e-05,0.0,0 STARLINK-3718,1 52132U 22029AW  23286.67032875  .00002601  00000-0  18139-3 0  9991,2 52132  53.2181  50.7027 0001565  74.5293 285.5872 15.08847340 88387,6917.858,95.437,540.806,538.64,0.0
52132.0,STARLINK-3718,PAYLOAD,2023-10-14 14:20:40,15.0884507,0.0001397,53.2177,46.5407,87.3471,272.7681,0.00026282,3.898e-05,0.0,0 STARLINK-3718,1 52132U 22029AW  23287.59769159  .00003898  00000-0  26282-3 0  9992,2 52132  53.2177  46.5407 0001397  87.3471 272.7681 15.08845070 88520,6917.865,95.437,540.696,538.763,0.0
52132.0,STARLINK-3718,PAYLOAD,2023-10-14 17:31:26,15.08854676,0.0001543,53.2183,45.9447,90.9074,269.2095,0.00036809,5.577e-05,0.0,0 STARLINK-3718,1 52132U 22029AW  23287.73016686  .00005577  00000-0  36809-3 0  9990,2 52132  53.2183  45.9447 0001543  90.9074 269.2095 15.08854676 88540,6917.836,95.437,540.768,538.633,0.0
52132.0,STARLINK-3718,PAYLOAD,2023-10-15 12:36:05,15.08828049,0.0001515,53.2176,42.3799,70.2212,289.8943,-3.9342e-05,-9.14e-06,0.0,0 STARLINK-3718,1 52132U 22029AW  23288.52506285 -.00000914  00000-0 -39342-4 0  9995,2 52132  53.2176  42.3799 0001515  70.2212 289.8943 15.08828049 88665,6917.917,95.438,540.83,538.734,0.0
52132.0,STARLINK-3718,PAYLOAD,2023-10-15 14:11:28,15.08828908,0.0001235,53.2177,42.0827,85.4282,274.6851,4.6269e-05,4.48e-06,0.0,0 STARLINK-3718,1 52132U 22029AW  23288.59130470  .00000448  00000-0  46269-4 0  9997,2 52132  53.2177  42.0827 0001235  85.4282 274.6851 15.08828908 88674,6917.914,95.438,540.634,538.925,0.0
52132.0,STARLINK-3718,PAYLOAD,2023-10-15 17:22:14,15.08837288,0.0001524,53.2186,41.4833,95.9874,264.1292,-1.5273e-06,-3.12e-06,0.0,0 STARLINK-3718,1 52132U 22029AW  23288.72377947 -.00000312  00000-0 -15273-5 0  9998,2 52132  53.2186  41.4833 0001524  95.9874 264.1292 15.08837288 88694,6917.889,95.438,540.808,538.699,0.0
52132.0,STARLINK-3718,PAYLOAD,2023-10-16 14:02:15,15.08847643,0.0001583,53.2182,37.6179,103.1695,256.9474,0.0002745,4.084e-05,0.0,0 STARLINK-3718,1 52132U 22029AW  23289.58489842  .00004084  00000-0  27450-3 0  9997,2 52132  53.2182  37.6179 0001583 103.1695 256.9474 15.08847643 88820,6917.857,95.437,540.817,538.627,0.0
52132.0,STARLINK-3718,PAYLOAD,2023-10-16 17:13:01,15.08851671,0.0001597,53.2184,37.0224,104.9433,255.1737,0.00037783,5.732e-05,0.0,0 STARLINK-3718,1 52132U 22029AW  23289.71737717  .00005732  00000-0  37783-3 0  9990,2 52132  53.2184  37.0224 0001597 104.9433 255.1737 15.08851671 88842,6917.845,95.437,540.814,538.605,0.0
52132.0,STARLINK-3718,PAYLOAD,2023-10-17 10:42:16,15.08842734,0.0001587,53.219,33.7512,106.8213,253.2953,0.00018548,2.665e-05,0.0,0 STARLINK-3718,1 52132U 22029AW  23290.44602102  .00002665  00000-0  18548-3 0  9991,2 52132  53.2190  33.7512 0001587 106.8213 253.2953 15.08842734 88959,6917.872,95.437,540.835,538.639,0.0
52132.0,STARLINK-3718,PAYLOAD,2023-10-17 13:53:02,15.08850248,0.0001378,53.218,33.1602,94.998,265.1169,0.00044896,6.866e-05,0.0,0 STARLINK-3718,1 52132U 22029AW  23290.57850013  .00006866  00000-0  44896-3 0  9993,2 52132  53.2180  33.1602 0001378  94.9980 265.1169 15.08850248 88970,6917.849,95.437,540.667,538.761,0.0
52132.0,STARLINK-3718,PAYLOAD,2023-10-17 17:03:48,15.08857283,0.000143,53.2184,32.5642,90.8221,269.2935,0.00050506,7.763e-05,0.0,0 STARLINK-3718,1 52132U 22029AW  23290.71097694  .00007763  00000-0  50506-3 0  9999,2 52132  53.2184  32.5642 0001430  90.8221 269.2935 15.08857283 88997,6917.828,95.436,540.682,538.703,0.0
52132.0,STARLINK-3718,PAYLOAD,2023-10-17 23:25:20,15.08848185,0.0001679,53.2192,31.3734,88.6817,271.4367,0.00025015,3.696e-05,0.0,0 STARLINK-3718,1 52132U 22029AW  23290.97593733  .00003696  00000-0  25015-3 0  9990,2 52132  53.2192  31.3734 0001679  88.6817 271.4367 15.08848185 89037,6917.855,95.437,540.882,538.559,0.0
52132.0,STARLINK-3718,PAYLOAD,2023-10-18 12:08:26,15.08840559,0.0001261,53.2173,28.998,82.2017,277.9118,0.00021385,3.117e-05,0.0,0 STARLINK-3718,1 52132U 22029AW  23291.50586240  .00003117  00000-0  21385-3 0  9999,2 52132  53.2173  28.9980 0001261  82.2017 277.9118 15.08840559 89111,6917.879,95.438,540.616,538.871,0.0
52132.0,STARLINK-3718,PAYLOAD,2023-10-18 13:43:49,15.08843989,0.0001374,53.217,28.7015,76.6383,283.4762,0.00041192,6.275e-05,0.0,0 STARLINK-3718,1 52132U 22029AW  23291.57210036  .00006275  00000-0  41192-3 0  9999,2 52132  53.2170  28.7015 0001374  76.6383 283.4762 15.08843989 89121,6917.868,95.437,540.684,538.783,0.0
